{
  "norad_id": 66641,
  "name": "STARLINK-35923",
  "history": [
    {
      "epoch": "2026-03-28T21:42:34.397856Z",
      "apogee_km": 476.0245318287616,
      "perigee_km": 474.3017492394356,
      "latitude_deg": 2.094693593100276e-05,
      "longitude_deg": -100.93752446226758,
      "height_km": 476.0572520686073,
      "semi_major_axis_km": 6853.300140534098,
      "eccentricity": 0.00012569,
      "inclination_deg": 53.1588,
      "raan_deg": 51.0241,
      "arg_perigee_deg": 89.7435,
      "mean_anomaly_deg": 270.371,
      "mean_motion_rev_day": 15.30217392
    },
    {
      "epoch": "2026-03-29T03:58:47.216064Z",
      "apogee_km": 476.06966591921355,
      "perigee_km": 474.38922046734206,
      "latitude_deg": 1.0084530822636411e-06,
      "longitude_deg": 163.53834244493376,
      "height_km": 476.2386906288483,
      "semi_major_axis_km": 6853.3664431932775,
      "eccentricity": 0.0001226,
      "inclination_deg": 53.159,
      "raan_deg": 49.8109,
      "arg_perigee_deg": 97.6058,
      "mean_anomaly_deg": 262.5082,
      "mean_motion_rev_day": 15.30195186
    },
    {
      "epoch": "2026-03-30T03:29:34.800288Z",
      "apogee_km": 475.9127134863038,
      "perigee_km": 474.3752484310362,
      "latitude_deg": -5.22738727472992e-05,
      "longitude_deg": 165.32448219601426,
      "height_km": 475.88903210508084,
      "semi_major_axis_km": 6853.28098095867,
      "eccentricity": 0.00011217,
      "inclination_deg": 53.1602,
      "raan_deg": 45.261,
      "arg_perigee_deg": 78.4972,
      "mean_anomaly_deg": 281.6154,
      "mean_motion_rev_day": 15.30223809
    },
    {
      "epoch": "2026-03-30T14:27:57.226752Z",
      "apogee_km": 475.99891053374085,
      "perigee_km": 474.35329299174555,
      "latitude_deg": -4.38005369100918e-05,
      "longitude_deg": -1.844695398068303,
      "height_km": 476.20708244861225,
      "semi_major_axis_km": 6853.313101762743,
      "eccentricity": 0.00012006,
      "inclination_deg": 53.1605,
      "raan_deg": 43.1359,
      "arg_perigee_deg": 99.2829,
      "mean_anomaly_deg": 260.8307,
      "mean_motion_rev_day": 15.30213051
    },
    {
      "epoch": "2026-03-30T20:44:10.379328Z",
      "apogee_km": 476.46000651060785,
      "perigee_km": 473.98786215437485,
      "latitude_deg": -2.7884097097982032e-05,
      "longitude_deg": -97.36959853633422,
      "height_km": 476.36716399474847,
      "semi_major_axis_km": 6853.360934332491,
      "eccentricity": 0.00018036,
      "inclination_deg": 53.1608,
      "raan_deg": 41.9233,
      "arg_perigee_deg": 101.4686,
      "mean_anomaly_deg": 258.6517,
      "mean_motion_rev_day": 15.30197031
    },
    {
      "epoch": "2026-03-31T20:14:58.920000Z",
      "apogee_km": 476.51599079534844,
      "perigee_km": 473.85827169725144,
      "latitude_deg": -3.675961441231133e-07,
      "longitude_deg": -95.58669394905755,
      "height_km": 475.96464278225943,
      "semi_major_axis_km": 6853.3241312463,
      "eccentricity": 0.0001939,
      "inclination_deg": 53.1619,
      "raan_deg": 37.3741,
      "arg_perigee_deg": 84.826,
      "mean_anomaly_deg": 275.2962,
      "mean_motion_rev_day": 15.30209357
    },
    {
      "epoch": "2026-04-01T05:39:17.669952Z",
      "apogee_km": 475.9335873577302,
      "perigee_km": 474.39159494972137,
      "latitude_deg": 2.6171522515625427e-05,
      "longitude_deg": 121.12744335125714,
      "height_km": 476.0634107224082,
      "semi_major_axis_km": 6853.2995911537255,
      "eccentricity": 0.0001125,
      "inclination_deg": 53.1624,
      "raan_deg": 35.5526,
      "arg_perigee_deg": 90.1699,
      "mean_anomaly_deg": 269.9431,
      "mean_motion_rev_day": 15.30217576
    },
    {
      "epoch": "2026-04-02T13:00:21.433536Z",
      "apogee_km": 476.22387951591554,
      "perigee_km": 474.07249622973904,
      "latitude_deg": -1.1574068949453224e-05,
      "longitude_deg": 3.505493266950953,
      "height_km": 476.1258487250976,
      "semi_major_axis_km": 6853.285187872827,
      "eccentricity": 0.00015696,
      "inclination_deg": 53.1619,
      "raan_deg": 29.4839,
      "arg_perigee_deg": 94.2535,
      "mean_anomaly_deg": 265.8645,
      "mean_motion_rev_day": 15.302224
    },
    {
      "epoch": "2026-04-03T03:06:49.630176Z",
      "apogee_km": 475.94145289982225,
      "perigee_km": 474.3995957729967,
      "latitude_deg": 6.351081180148516e-05,
      "longitude_deg": 148.5796754251977,
      "height_km": 476.0060577810146,
      "semi_major_axis_km": 6853.307524336409,
      "eccentricity": 0.00011249,
      "inclination_deg": 53.1621,
      "raan_deg": 26.7549,
      "arg_perigee_deg": 85.315,
      "mean_anomaly_deg": 274.798,
      "mean_motion_rev_day": 15.30214919
    },
    {
      "epoch": "2026-04-04T18:18:10.023264Z",
      "apogee_km": 476.44380550728874,
      "perigee_km": 473.7244473643186,
      "latitude_deg": 4.970558536882216e-06,
      "longitude_deg": -88.44767513879654,
      "height_km": 475.4953406126614,
      "semi_major_axis_km": 6853.221126435804,
      "eccentricity": 0.0001984,
      "inclination_deg": 53.1606,
      "raan_deg": 19.172,
      "arg_perigee_deg": 69.0513,
      "mean_anomaly_deg": 291.07,
      "mean_motion_rev_day": 15.30243856
    },
    {
      "epoch": "2026-04-05T11:32:46.221792Z",
      "apogee_km": 476.05075698117525,
      "perigee_km": 474.474475069489,
      "latitude_deg": -2.257758228420653e-05,
      "longitude_deg": 8.855915248257777,
      "height_km": 476.20753394033545,
      "semi_major_axis_km": 6853.399616025332,
      "eccentricity": 0.000115,
      "inclination_deg": 53.1604,
      "raan_deg": 15.8346,
      "arg_perigee_deg": 93.3924,
      "mean_anomaly_deg": 266.7208,
      "mean_motion_rev_day": 15.30184076
    },
    {
      "epoch": "2026-04-06T01:39:14.935104Z",
      "apogee_km": 475.9260949525478,
      "perigee_km": 474.3838301292981,
      "latitude_deg": 4.915518678367475e-06,
      "longitude_deg": 153.92700184788515,
      "height_km": 476.1804118406516,
      "semi_major_axis_km": 6853.291962540922,
      "eccentricity": 0.00011252,
      "inclination_deg": 53.1602,
      "raan_deg": 13.1047,
      "arg_perigee_deg": 99.4892,
      "mean_anomaly_deg": 260.6236,
      "mean_motion_rev_day": 15.30220131
    },
    {
      "epoch": "2026-04-07T18:24:37.420128Z",
      "apogee_km": 476.00547515527705,
      "perigee_km": 474.3387503790527,
      "latitude_deg": 5.196026955161452e-05,
      "longitude_deg": -106.97695480306129,
      "height_km": 476.1565046081174,
      "semi_major_axis_km": 6853.309112767165,
      "eccentricity": 0.0001216,
      "inclination_deg": 53.1607,
      "raan_deg": 5.2182,
      "arg_perigee_deg": 95.9345,
      "mean_anomaly_deg": 264.1795,
      "mean_motion_rev_day": 15.30214387
    },
    {
      "epoch": "2026-04-08T00:40:50.315232Z",
      "apogee_km": 475.97048550250474,
      "perigee_km": 474.51578703477935,
      "latitude_deg": 6.568486338802548e-05,
      "longitude_deg": 157.49631509177604,
      "height_km": 476.00658348485985,
      "semi_major_axis_km": 6853.380136268642,
      "eccentricity": 0.00010613,
      "inclination_deg": 53.1598,
      "raan_deg": 4.0027,
      "arg_perigee_deg": 79.3113,
      "mean_anomaly_deg": 280.8008,
      "mean_motion_rev_day": 15.301906
    },
    {
      "epoch": "2026-04-09T00:11:38.073984Z",
      "apogee_km": 475.96896396749617,
      "perigee_km": 474.5072761218926,
      "latitude_deg": -2.0692377403935724e-05,
      "longitude_deg": 159.28159737798796,
      "height_km": 476.0176816629552,
      "semi_major_axis_km": 6853.375120044694,
      "eccentricity": 0.00010664,
      "inclination_deg": 53.1596,
      "raan_deg": 359.4527,
      "arg_perigee_deg": 80.6475,
      "mean_anomaly_deg": 279.4646,
      "mean_motion_rev_day": 15.3019228
    },
    {
      "epoch": "2026-04-09T23:42:25.964064Z",
      "apogee_km": 475.852232612202,
      "perigee_km": 474.5761386214399,
      "latitude_deg": -3.096377841476747e-05,
      "longitude_deg": 161.06498784289872,
      "height_km": 476.10149389228985,
      "semi_major_axis_km": 6853.351185616821,
      "eccentricity": 9.31e-05,
      "inclination_deg": 53.1599,
      "raan_deg": 354.9013,
      "arg_perigee_deg": 88.9926,
      "mean_anomaly_deg": 271.1181,
      "mean_motion_rev_day": 15.30200296
    },
    {
      "epoch": "2026-04-11T02:21:20.368224Z",
      "apogee_km": 476.11894462341934,
      "perigee_km": 474.35091173338697,
      "latitude_deg": -1.1216556001103536e-05,
      "longitude_deg": 115.08920320944961,
      "height_km": 475.6571599573461,
      "semi_major_axis_km": 6853.371928178402,
      "eccentricity": 0.00012899,
      "inclination_deg": 53.1611,
      "raan_deg": 349.7466,
      "arg_perigee_deg": 57.4049,
      "mean_anomaly_deg": 302.7076,
      "mean_motion_rev_day": 15.30193349
    },
    {
      "epoch": "2026-04-12T09:42:24.308064Z",
      "apogee_km": 476.25120503426933,
      "perigee_km": 474.1799848130313,
      "latitude_deg": 1.2883400179951232e-05,
      "longitude_deg": -2.5375401413232788,
      "height_km": 476.093505709199,
      "semi_major_axis_km": 6853.35259492365,
      "eccentricity": 0.00015111,
      "inclination_deg": 53.1598,
      "raan_deg": 343.6738,
      "arg_perigee_deg": 88.9041,
      "mean_anomaly_deg": 271.2133,
      "mean_motion_rev_day": 15.30199824
    },
    {
      "epoch": "2026-04-14T21:16:25.635648Z",
      "apogee_km": 476.33555868946496,
      "perigee_km": 473.8094656632775,
      "latitude_deg": -3.136755144304673e-05,
      "longitude_deg": 169.98286569511305,
      "height_km": 476.0644618937532,
      "semi_major_axis_km": 6853.209512176371,
      "eccentricity": 0.0001843,
      "inclination_deg": 53.1617,
      "raan_deg": 332.1461,
      "arg_perigee_deg": 94.2895,
      "mean_anomaly_deg": 265.8316,
      "mean_motion_rev_day": 15.30247746
    }
  ]
}